[{"name": "Alok Tripathy", "street": "107, Veeru Apartments", "city": "Bangalore", "zip": "560035", "state": "Karnataka"}, {"name": "Delia Foster","street": "4400 W University #7201","city": "Dallas","zip": "75209","state": "Texas"}, {"name": "Lorna Hood","street": "30 Upton Hills Lane","city": "Middleton","zip": "01949","state": "MA"}, {"name": "Martha Hibbs","street": "434 meadowbrook rd","city": "Fairfield","zip": "06824","state": "CT"}, {"name": "Genevieve Prieur","street": "14 Strickland Ave","city": "Toronto","zip": "M6K 2H","state": "Ontario"}, {"name": "Alexander Politi","street": "115 George Appleton Way, Unit 2128","city": "Toronto","zip": "m3m0a2","state": "Ontario"}, {"name": "Corina Bobel","street": "80 Harrison Garden Blvd, Suite 826","city": "North York","zip": "M2N 7E3","state": "Ontario"}, {"name": "Greer Raggio","street": "345 S 18th St Apt 11","city": "Philadelphia","zip": "19103","state": "PA"}, {"name": "Ashley Witt","street": "630 S 19th St., Apt 2R","city": "Philadelphia","zip": "19146","state": "PA"}, {"name": "Ryan Teichman ","street": "106 Jeremy Dr. ","city": "Royse City","zip": "75189","state": "Texas"}, {"name": "Patricia Pak","street": "32 Hendon Road","city": "Markham","zip": "L3R 6Z","state": "Ontario"}, {"name": "Jacquelyn DeGregorio","street": "9143 Ashton Road","city": "Philadelphia","zip": "19114","state": "PA"}, {"name": "Rebecca Slongo","street": "6565 Tintern Abbey court","city": "Mississauga","zip": "L5N7P4","state": "Ontario"}, {"name": "Stephanie Wong","street": "25 misty moor dr","city": "Richmond hill","zip": "L4c6p9","state": "Ontario"}, {"name": "Stephanie Flores","street": "13001 N. 2nd Place","city": "Phoenix","zip": "85022","state": "Arizona"}, {"name": "maria lopez","street": "1741 S. 16th St.","city": "Philadelphia","zip": "19145","state": "PA"}, {"name": "Jillian Signoriello","street": "44 massand rd","city": "North attleboro","zip": "02760","state": "Ma"}, {"name": "Amy McCampbell","street": "6903 Rusty Fig Dr","city": "Austin","zip": "78750","state": "Tx"}, {"name": "ASHMITA TANEJA","street": "11 Dunbloor Road","city": "Etobicoke","zip": "M9A0B2","state": "Ontario"}, {"name": "Karin Valliere moschetto","street": "63 Bradford st ","city": "North Andover","zip": "01845","state": "Ma"}, {"name": "Jennifer Yan","street": "2 andorra court","city": "pacifica","zip": "94044","state": "California"}, {"name": "Deborah Wisniews","street": "3514 Lavern dr.","city": "Highland","zip": "46322","state": "Indiana"}, {"name": "tishya mehta","street": "18 Price Street","city": "Whitby","zip": "L1M1B1","state": "ONT"}, {"name": "Khanh Vo","street": "104 Rhonda road","city": "Guelph","zip": "N1h 6h","state": "Ontario"}, {"name": "Joshlene Escobar","street": "30 Acre Heights Cres","city": "Scarborough","zip": "M1H 2N","state": "Ont"}, {"name": "Kyle Chadwick","street": "15825 Quorum Dr","city": "Addison","zip": "75001","state": "Texas"}, {"name": "Tiffany Obrien","street": "3476 Sitio Borde ","city": "Carlsbad","zip": "92009","state": "Ca"}, {"name": "amy thayer","street": "12631 ne 9th place","city": "Bellevue ","zip": "98005","state": "wa"}, {"name": "Meghan  Maher ","street": "1628 Tumbling Stone Way","city": "Garner","zip": "27529","state": "NC"}, {"name": "Elizabeth  Dahlman","street": "1628 Tumbling Stone Way","city": "Garner","zip": "27529","state": "Nc"}, {"name": "Ann Votaw","street": "30 Seaman Ave., 1E","city": "New York","zip": "10034","state": "NY"}, {"name": "David Gottlieb","street": "14 Upland Road","city": "Waban","zip": "02468","state": "MA"}, {"name": "Jennifer  Moccia","street": "12 Alma lane","city": "Danvers","zip": "019123","state": "MA"}, {"name": "Stephen Chan","street": "519 Harrison Ave, #515","city": "Boston","zip": "02118","state": "MA"}, {"name": "Christina Chan","street": "519 Harrison Avenue, Apt. D515","city": "Boston","zip": "02118","state": "MA"}, {"name": "Audra Garvey","street": "2306 Oakland ridge drive","city": "Kalamazoo","zip": "49008","state": "MI"}, {"name": "LISA NGUYEN","street": "2009_23 HOLLYWOOD AVE","city": "NORTH YORK","zip": "M2N7L8","state": ""}, {"name": "Lu  Huang ","street": "245 Davisville Ave, Ste 512","city": "Toronto","zip": "M4S 3H","state": "Ontario"}, {"name": "Shayna Smith","street": "11 Park Ave.","city": "Worcester","zip": "01520","state": "MA"}, {"name": "Sean  Nicolello","street": "547 West Maple Dr","city": "New Hyde Park","zip": "11040","state": "NY"}, {"name": "Shawna Rai","street": "212 Pheasant Ridge Drive","city": "Cedar Park","zip": "78613","state": "Texas"}, {"name": "Catherine Lenihan","street": "29 Whitewood Rd","city": "Toronto","zip": "","state": ""}, {"name": "Jenny Kwan","street": "420 27th ave","city": "san francisco","zip": "94121","state": "california"}, {"name": "Molly Saltino","street": "107 N. Wheeless Dr. Apt. D","city": "Nashville","zip": "27856","state": "North Carolina"}, {"name": "jill jackson","street": "3530 lake ridge bend","city": "spring","zip": "77380","state": "tx"}, {"name": "Andra Whitt","street": "4200 Cathedral Ave NW #115","city": "Washington","zip": "20016","state": "dc"}, {"name": "william keifer","street": "16027 lausanne","city": "houston","zip": "77070","state": "texas"}, {"name": "Janelle Merry","street": "1522 First st #M309","city": "Coronado","zip": "92118","state": "CA"}, {"name": "Aileen Fedor","street": "410_90 Trinity Street","city": "Toronto","zip": "M5A 0E","state": "Ontario"}, {"name": "Amy Lee","street": "204 McCullen St.","city": "Duryea","zip": "18642","state": "PA"}, {"name": "Jane Sterling","street": "5115 Beckington Lane","city": "Dallas","zip": "75287","state": "TX"}, {"name": "Sarah Hickman","street": "1139_18 Mondeo Drive","city": "Toronto","zip": "M1P 5C","state": "ON"}, {"name": "Amy Arentowicz","street": "24 Fifth Avenue, Apt. 230","city": "New York","zip": "10011","state": "New York"}, {"name": "Luiss Zaharia","street": "3140 Clayhill Rd","city": "Mississauga","zip": "L5B 4J","state": "Ontario"}, {"name": "Savoy Zhou","street": "151 middlefield dr","city": "San Francisco","zip": "94132","state": "California"}, {"name": "Jordan Egbertson","street": "1355 Doremus Rd","city": "Pasadena","zip": "91105","state": "CA"}, {"name": "Jane Goodman","street": "3482 Scott st","city": "San Francisco ","zip": "94123","state": "Ca"}, {"name": "Kyle Steinhouse","street": "287 Harvard St Apt 64","city": "Cambridge","zip": "02139","state": "MA"}, {"name": "Gwendolyn Hansen","street": "16 Falkland St. #1","city": "Brighton","zip": "02135","state": "MA"}, {"name": "John Tran","street": "1205 Kingsholm Drive","city": "Mississauga","zip": "L4Y2H1","state": ""}, {"name": "Caitlin Nash","street": "52 gradwell drive","city": "Toronto","zip": "m1m2m9","state": "Ontario"}, {"name": "Nichola Forrester","street": "84 Needham Roaf","city": "Hyde Park","zip": "02136","state": "Mass"}, {"name": "Zhara Mian","street": "1363 Danforth Ave","city": "Toronto","zip": "M4J1M9","state": "Ontario"}, {"name": "Kathryn Georgakopoulos","street": "4 Angelo Lane","city": "Londonderry","zip": "03053","state": "NH"}, {"name": "Crystal James","street": "1612 Wehunt PL SE","city": "Smyrna","zip": "30082","state": "GA"}, {"name": "Lydia Cocquyt","street": "40 Farr Lane PO Box 419","city": "Harpswell","zip": "04079","state": "Maine"}, {"name": "Anam Qamar","street": "95 Aird Court","city": "Milton","zip": "L9T 8B","state": "ON"}, {"name": "Nicole Maloy","street": "3533 Locust Walk","city": "Philadelphia","zip": "19104","state": "PA"}, {"name": "Elizabeth Nixon","street": "14635 NE 32nd Street, Unit D208","city": "Bellevue","zip": "98007","state": "WA"}, {"name": "sherry odom","street": "4892 Thompson Ct","city": "Mableton","zip": "30126","state": "GA"}, {"name": "sherry odom","street": "4892 Thompson CT","city": "Mableton","zip": "30126","state": "GA"}, {"name": "Julie Sinon","street": "15928 Leclaire A202","city": "Oak Forest","zip": "60452","state": "IL"}, {"name": "Lynda Mayora","street": "1505 De rose way apt 118","city": "San Jose","zip": "95126","state": "CA"}, {"name": "Sarah_Lynne Lauder","street": "31 Banner Crescent","city": "Ajax","zip": "L1S3S8","state": "On"}, {"name": "Tamara Lang","street": "1019A Queen Street East","city": "Toronto","zip": "M4M1K3","state": "Ontario"}, {"name": "Teresa Spindel","street": "11476 Dona Evita Drive","city": "Studio City","zip": "91604","state": "California"}, {"name": "Melissa Clark","street": "7 Merdock Court","city": "Stouffville","zip": "L4A 0A","state": "Ontario"}, {"name": "Renee Clunie","street": "215 Manchester Street","city": "Hartford","zip": "06112","state": "CT"}, {"name": "Pamela Clark","street": "45 Kingston Rd","city": "Toronto","zip": "M4L 1S","state": "ON"}, {"name": "Madeline Lockhart","street": "328 Linden Street","city": "Winnetka","zip": "60093","state": "Illinois"}, {"name": "Jessica Hyaduck","street": "2010 Brook Valley Ct.","city": "Jonesboro","zip": "30236","state": "Georgia"}, {"name": "Julie Nish","street": "5102 west Hanover ave","city": "Dallas ","zip": "75209","state": "Tx"}, {"name": "Courtney Craig","street": "1600 Arch Street, Suite 200","city": "Philadelphia","zip": "19103","state": "PA"}, {"name": "Elizabeth Tangney","street": "181 North Street","city": "Salem","zip": "01970","state": "MA"}, {"name": "Kristen Lynch","street": "PO Box 391318","city": "Cambridge","zip": "02139","state": "MA"}, {"name": "Nikeisha Hendricks","street": "4841 n. 9th street","city": "Philadelphia ","zip": "19141","state": "Pa"}, {"name": "Noaa Reuvenny","street": "8455 Limerick Ave","city": "Winnetka","zip": "91306","state": "Ca"}, {"name": "Kathleen Conley","street": "154 Allen Ave","city": "Portland","zip": "04103","state": "ME"}, {"name": "Carl Dean","street": "435 N 2nd St Unit 125","city": "San Jose","zip": "95112","state": "CA"}, {"name": "Deanne Burr","street": "28 Hunts Point Road","city": "Cape Elizabeth ","zip": "04107","state": "Maine"}, {"name": "Lisette Delgado","street": "2965 N Bend Drive","city": "Dallas","zip": "75229","state": "Texas"}, {"name": "Lisette Delgado","street": "2965 N bend Dr.","city": "Dallas ","zip": "75229","state": "Tx"}, {"name": "Shannon McInnis","street": "2R opi circle","city": "Lexington ","zip": "02420","state": "MA"}, {"name": "Yasmin Musani","street": "250 Wellington Street West, Unit 131","city": "Toronto","zip": "M5V 3P","state": "Ontario"}, {"name": "Meghan Hall","street": "47 burgundy drive","city": "Nashua ","zip": "03062","state": "New Hampshire "}, {"name": "Anuj Marya","street": "2012_373 Front St. West","city": "Toronto","zip": "M5V3R7","state": "Ontario"}, {"name": "Bhanu Misra","street": "2012_373 Front St. West","city": "Toronto","zip": "M5V3R7","state": "Ontario"}, {"name": "Xing Xin","street": "1 morningside dr.","city": "New York","zip": "10025","state": "Ny"}, {"name": "Kate Durdel","street": "970 Chestnut Street, apt 3","city": "San Francisco","zip": "94109","state": "CA"}, {"name": "Lyncy Ha","street": "4 Glenrose Road #2","city": "Boston","zip": "02124","state": "Ma"}, {"name": "Jyoti Suri","street": "10 Yonge St","city": "Markham","zip": "M5E 1R","state": "ON"}, {"name": "Danielle SHEA","street": "3652 Sacramento St","city": "San Francisco","zip": "94118","state": "CA"}, {"name": "anne lord","street": "121 Hunter St W","city": "Hamilton","zip": "L8P 1R","state": "Ontario"}, {"name": "Parmvir Sidhu","street": "11745 72nd Ave","city": "North Delta","zip": "V4E 1Z","state": "British Columbia"}]
